IRIDIUM 39              
1 25042U 97069D   25060.54605528  .00001517  00000+0  39487-3 0  9999
2 25042  86.3859 257.2795 0016377 311.0162  48.9625 14.48945808433633
IRIDIUM 38              
1 25043U 97069E   25060.59377205  .00000903  00000+0  29266-3 0  9995
2 25043  86.3909 278.4463 0003948  89.4918 270.6732 14.37943070430752
IRIDIUM 42              
1 25077U 97077A   25060.53794382  .00000852  00000+0  28564-3 0  9997
2 25077  86.3921 284.5124 0002703  92.6695 267.4811 14.36193255425747
IRIDIUM 44              
1 25078U 97077B   25060.50478069  .00001008  00000+0  31371-3 0  9990
2 25078  86.3903 266.7163 0003306  57.6199 302.5320 14.40067833428233
IRIDIUM 45              
1 25104U 97082A   25059.55716335  .00026496  00000+0  10767-2 0  9993
2 25104  86.3565 100.4602 0128700  18.7845 341.8079 15.17032678435791
IRIDIUM 24              
1 25105U 97082B   25060.54644875  .00001084  00000+0  32485-3 0  9992
2 25105  86.3915 125.9695 0013521  77.4786 282.7926 14.41919250427954
IRIDIUM 51              
1 25262U 98018A   25060.55889331  .00040583  00000+0  11632-2 0  9992
2 25262  86.3841 108.7734 0100196 301.7824  57.3694 15.30767571430734
IRIDIUM 57              
1 25273U 98019B   25059.80458098  .00001072  00000+0  36428-3 0  9994
2 25273  86.4021 190.6219 0002114  93.7661 266.3777 14.35759476409237
